SAR-LUPE 2              
1 31797U 07030A   26190.27185166  .00031617  00000+0  50022-3 0  9990
2 31797  98.1044 297.5035 0004394 223.2363 136.8543 15.53394157 60365
SAPPHIRE                
1 39088U 13009C   26190.26146032  .00000076  00000+0  41436-4 0  9997
2 39088  98.4271   9.1941 0011204 177.1465 182.9787 14.35246514699746
PRAETORIAN SDA_602      
1 65565U 25203A   26189.92829008  .00000065  00000+0  47828-4 0  9996
2 65565  81.3037 350.6367 0006889 132.0571 228.1173 13.83887663 41700
PRAETORIAN SDA_603      
1 65566U 25203B   26189.95690970  .00000139  00000+0  11434-3 0  9999
2 65566  81.3042 350.5322 0010553 130.0035 230.2050 13.83961881 41717
PRAETORIAN SDA_604      
1 65567U 25203C   26189.91802215  .00000064  00000+0  47325-4 0  9999
2 65567  81.3059 351.0140 0006378 135.8734 224.2932 13.83049823 41680
PRAETORIAN SDA_605      
1 65568U 25203D   26189.95072643  .00000054  00000+0  38324-4 0  9996
2 65568  81.3024 350.6282 0009160 128.1936 232.0047 13.83199761 41700
PRAETORIAN SDA_606      
1 65569U 25203E   26189.93590081  .00000061  00000+0  44517-4 0  9995
2 65569  81.3060 350.8776 0006999 130.5042 229.6725 13.83199812 41693
PRAETORIAN SDA_607      
1 65570U 25203F   26189.92878275  .00000164  00000+0  13711-3 0  9995
2 65570  81.3045 350.5109 0009776 129.8419 230.3599 13.83758330 41717
PRAETORIAN SDA_608      
1 65571U 25203G   26189.83928025  .00000063  00000+0  46401-4 0  9996
2 65571  81.3014 350.7602 0006875 135.0161 225.1553 13.83819050 41689
PRAETORIAN SDA_609      
1 65572U 25203H   26189.91034011  .00000231  00000+0  19680-3 0  9994
2 65572  81.3049 350.6739 0007699 129.6054 230.5784 13.84211204 41700
PRAETORIAN SDA_610      
1 65573U 25203J   26189.89209177  .00000045  00000+0  29958-4 0  9992
2 65573  81.3015 350.6711 0007648 134.1093 226.0694 13.83769338 41695
PRAETORIAN SDA_611      
1 65574U 25203K   26189.82775213  .00000479  00000+0  42526-3 0  9991
2 65574  81.3015 350.9126 0006269 138.2119 221.9517 13.83311100 41677
PRAETORIAN SDA_612      
1 65575U 25203L   26189.93484110  .00000198  00000+0  16419-3 0  9997
2 65575  81.3035 350.3454 0010158 130.2527 229.9520 13.85040554 41727
PRAETORIAN SDA_613      
1 65576U 25203M   26189.84300232  .00000061  00000+0  44998-4 0  9993
2 65576  81.3006 350.9112 0006609 129.4115 230.7627 13.82767274 41676
PRAETORIAN SDA_614      
1 65577U 25203N   26189.92812580  .00000033  00000+0  19088-4 0  9998
2 65577  81.3019 350.4346 0008073 128.0308 232.1579 13.84778230 41725
PRAETORIAN SDA_615      
1 65578U 25203P   26189.91036379  .00000239  00000+0  20273-3 0  9997
2 65578  81.3024 350.4291 0009909 128.9535 231.2506 13.84438157 41711
PRAETORIAN SDA_616      
1 65579U 25203Q   26189.89994354  .00000118  00000+0  96323-4 0  9997
2 65579  81.3069 351.0044 0006347 136.4394 223.7264 13.83269699 41689
PRAETORIAN SDA_617      
1 65580U 25203R   26189.92340092  .00000059  00000+0  43193-4 0  9998
2 65580  81.3044 350.8119 0008324 128.4965 231.6939 13.83151705 41692
PRAETORIAN SDA_618      
1 65581U 25203S   26189.94902618  .00000149  00000+0  12262-3 0  9991
2 65581  81.3025 350.3234 0010715 132.3974 227.8091 13.84225373 41720
PRAETORIAN SDA_619      
1 65582U 25203T   26189.92223957  .00000164  00000+0  13721-3 0  9990
2 65582  81.3049 350.6706 0009126 129.6096 230.5867 13.83805987 42336
PRAETORIAN SDA_620      
1 65583U 25203U   26189.95465894 -.00006035  00000+0 -55176-2 0  9996
2 65583  81.3036 350.6677 0008389 122.8303 237.3662 13.83254247 41701
PRAETORIAN SDA_621      
1 65584U 25203V   26189.92406814  .00000067  00000+0  49897-4 0  9993
2 65584  81.3027 350.6025 0008360 123.7223 236.4732 13.83803645 41709
PRAETORIAN SDA_601      
1 65585U 25203W   26189.83231179  .00000364  00000+0  32144-3 0  9990
2 65585  81.3049 351.0093 0006356 139.6014 220.5615 13.83170119 41674
VICTUS HAZE PUMA        
1 69646U 26142A   26190.32367549  .00002781  00000+0  12827-3 0  9993
2 69646  97.4474  87.6951 0025140 287.7724  72.0768 15.20821230  3033
